H1 CPF  1  HTS 2022  6 12 12  6631 larets           NONE
H2  0304206 5557    27944 2022 06 12  0  0  0 2022 06 17  0  0  0   180 1 1  0 0 0
H5  0.0560 
H9 
10 0 59742  72360.00000  0    -947971.813   -2286688.418   -6614942.846
10 0 59742  72540.00000  0   -1009140.007    -961081.457   -6923090.569
10 0 59742  72720.00000  0    -998501.506     399984.435   -6978744.976
10 0 59742  72900.00000  0    -916173.093    1745342.426   -6779816.810
10 0 59742  73080.00000  0    -766192.095    3024401.361   -6333411.723
10 0 59742  73260.00000  0    -556340.286    4189032.765   -5655610.162
10 0 59742  73440.00000  0    -297786.193    5195391.918   -4770941.445
10 0 59742  73620.00000  0      -4558.017    6005607.262   -3711553.515
10 0 59742  73800.00000  0     307133.871    6589270.794   -2516087.972
10 0 59742  73980.00000  0     619698.689    6924656.793   -1228289.090
10 0 59742  74160.00000  0     915054.547    6999605.699     104610.649
10 0 59742  74340.00000  0    1175561.109    6812015.563    1433666.844
10 0 59742  74520.00000  0    1384942.736    6369906.705    2710078.884
10 0 59742  74700.00000  0    1529149.479    5691061.455    3887035.772
10 0 59742  74880.00000  0    1597115.866    4802260.938    4921472.879
10 0 59742  75060.00000  0    1581377.552    3738155.425    5775663.623
10 0 59742  75240.00000  0    1478511.730    2539836.446    6418570.156
10 0 59742  75420.00000  0    1289390.828    1253199.496    6826923.102
10 0 59742  75600.00000  0    1019239.046     -72842.356    6986009.651
10 0 59742  75780.00000  0     677492.171   -1388217.175    6890155.235
10 0 59742  75960.00000  0     277464.976   -2643569.997    6542905.242
10 0 59742  76140.00000  0    -164164.948   -3792101.709    5956895.659
10 0 59742  76320.00000  0    -628036.190   -4791305.338    5153412.433
10 0 59742  76500.00000  0   -1092921.120   -5604545.493    4161664.547
10 0 59742  76680.00000  0   -1536662.013   -6202443.923    3017773.100
10 0 59742  76860.00000  0   -1937185.816   -6563996.555    1763483.593
10 0 59742  77040.00000  0   -2273551.341   -6677367.140     444649.705
10 0 59742  77220.00000  0   -2526974.483   -6540313.382    -890463.419
10 0 59742  77400.00000  0   -2681775.787   -6160218.020   -2192982.827
10 0 59742  77580.00000  0   -2726204.452   -5553721.517   -3415258.753
10 0 59742  77760.00000  0   -2653094.290   -4745972.749   -4512642.428
10 0 59742  77940.00000  0   -2460316.154   -3769540.133   -5445126.968
10 0 59742  78120.00000  0   -2151010.209   -2663051.513   -6178787.473
10 0 59742  78300.00000  0   -1733591.286   -1469629.888   -6686979.062
10 0 59742  78480.00000  0   -1221526.409    -235192.922   -6951256.904
10 0 59742  78660.00000  0    -632899.870     993310.876   -6961999.580
10 0 59742  78840.00000  0      10220.341    2169667.232   -6718736.346
10 0 59742  79020.00000  0     682595.533    3250113.712   -6230176.478
10 0 59742  79200.00000  0    1356790.669    4194964.773   -5513936.897
10 0 59742  79380.00000  0    2004278.909    4970087.961   -4595959.459
10 0 59742  79560.00000  0    2596637.763    5548181.213   -3509627.982
10 0 59742  79740.00000  0    3106790.058    5909795.787   -2294593.582
10 0 59742  79920.00000  0    3510235.487    6044053.869    -995340.953
10 0 59742  80100.00000  0    3786209.791    5949017.325     340461.425
10 0 59742  80280.00000  0    3918705.056    5631678.116    1663757.924
10 0 59742  80460.00000  0    3897298.021    5107568.678    2925963.461
10 0 59742  80640.00000  0    3717741.522    4400016.182    4080802.377
10 0 59742  80820.00000  0    3382286.969    3539074.050    5086040.398
10 0 59742  81000.00000  0    2899723.644    2560201.670    5905037.021
10 0 59742  81180.00000  0    2285136.892    1502757.868    6508052.654
10 0 59742  81360.00000  0    1559413.794     408389.158    6873277.835
10 0 59742  81540.00000  0     748510.881    -680617.385    6987565.955
10 0 59742  81720.00000  0    -117483.299   -1722957.022    6846865.867
10 0 59742  81900.00000  0   -1005462.665   -2679861.207    6456345.513
10 0 59742  82080.00000  0   -1880557.124   -3516527.022    5830202.920
10 0 59742  82260.00000  0   -2707481.438   -4203378.372    4991181.080
10 0 59742  82440.00000  0   -3451952.901   -4717129.535    3969794.060
10 0 59742  82620.00000  0   -4082121.290   -5041605.557    2803258.149
10 0 59742  82800.00000  0   -4569938.404   -5168280.325    1534159.991
10 0 59742  82980.00000  0   -4892410.939   -5096507.524     208905.415
10 0 59742  83160.00000  0   -5032673.438   -4833424.991   -1123998.687
10 0 59742  83340.00000  0   -4980821.317   -4393532.992   -2415760.223
10 0 59742  83520.00000  0   -4734452.915   -3797961.694   -3619133.341
10 0 59742  83700.00000  0   -4298893.730   -3073471.168   -4690174.420
10 0 59742  83880.00000  0   -3687099.505   -2251243.491   -5589851.258
10 0 59742  84060.00000  0   -2919246.979   -1365528.037   -6285445.231
10 0 59742  84240.00000  0   -2022037.492    -452206.126   -6751701.478
10 0 59742  84420.00000  0   -1027744.280     452661.320   -6971696.106
10 0 59742  84600.00000  0      26952.036    1314242.577   -6937405.670
10 0 59742  84780.00000  0    1102300.368    2100257.500   -6649983.410
10 0 59742  84960.00000  0    2156957.063    2782176.766   -6119739.253
10 0 59742  85140.00000  0    3149564.600    3336263.232   -5365809.936
10 0 59742  85320.00000  0    4040372.976    3744416.260   -4415521.585
10 0 59742  85500.00000  0    4792852.173    3994793.007   -3303455.937
10 0 59742  85680.00000  0    5375230.082    4082174.863   -2070227.323
10 0 59742  85860.00000  0    5761876.610    4008056.210    -761005.046
10 0 59742  86040.00000  0    5934463.688    3780445.834     576165.754
10 0 59742  86220.00000  0    5882836.684    3413386.067    1892174.817
10 0 59743      0.00000  0    5605545.711    2926210.483    3138709.877
10 0 59743    180.00000  0    5110004.828    2342582.524    4270084.635
10 0 59743    360.00000  0    4412271.783    1689365.872    5244944.370
10 0 59743    540.00000  0    3536474.496     995392.881    6027774.787
10 0 59743    720.00000  0    2513912.898     290193.130    6590167.720
10 0 59743    900.00000  0    1381889.632    -397255.915    6911795.553
10 0 59743   1080.00000  0     182326.350   -1039705.042    6981094.983
10 0 59743   1260.00000  0   -1039795.315   -1612700.190    6795643.748
10 0 59743   1440.00000  0   -2238109.264   -2095502.017    6362224.205
10 0 59743   1620.00000  0   -3366601.474   -2471827.618    5696584.343
10 0 59743   1800.00000  0   -4381368.548   -2730400.174    4822909.114
10 0 59743   1980.00000  0   -5242341.713   -2865288.968    3772985.234
10 0 59743   2160.00000  0   -5914896.701   -2876018.590    2585081.855
10 0 59743   2340.00000  0   -6371288.034   -2767445.769    1302582.352
10 0 59743   2520.00000  0   -6591840.406   -2549408.230     -27602.194
10 0 59743   2700.00000  0   -6565824.875   -2236152.276   -1356776.847
10 0 59743   2880.00000  0   -6291970.943   -1845569.220   -2636288.792
10 0 59743   3060.00000  0   -5778581.263   -1398281.362   -3819349.172
10 0 59743   3240.00000  0   -5043252.062    -916627.483   -4862768.464
10 0 59743   3420.00000  0   -4112218.203    -423599.769   -5728535.493
10 0 59743   3600.00000  0   -3019358.213      58214.486   -6385178.622
10 0 59743   3780.00000  0   -1804914.684     507634.944   -6808863.487
10 0 59743   3960.00000  0    -513990.813     905789.678   -6984207.459
10 0 59743   4140.00000  0     805119.791    1236886.251   -6904798.691
10 0 59743   4320.00000  0    2102715.665    1488827.486   -6573421.881
10 0 59743   4500.00000  0    3329543.089    1653654.962   -6001984.063
10 0 59743   4680.00000  0    4438660.784    1727803.724   -5211126.253
10 0 59743   4860.00000  0    5387251.257    1712159.052   -4229534.101
10 0 59743   5040.00000  0    6138319.584    1611913.731   -3092949.767
10 0 59743   5220.00000  0    6662201.228    1436226.387   -1842903.672
10 0 59743   5400.00000  0    6937809.244    1197694.611    -525200.206
10 0 59743   5580.00000  0    6953544.528     911663.472     811792.588
10 0 59743   5760.00000  0    6707812.712     595405.780    2118970.012
10 0 59743   5940.00000  0    6209123.505     267215.573    3348354.021
10 0 59743   6120.00000  0    5475757.663     -54536.699    4454905.719
10 0 59743   6300.00000  0    4535029.424    -352332.476    5398198.758
10 0 59743   6480.00000  0    3422192.511    -610371.019    6143890.418
10 0 59743   6660.00000  0    2179047.506    -815330.183    6664934.914
10 0 59743   6840.00000  0     852326.914    -956989.456    6942512.379
10 0 59743   7020.00000  0    -508082.584   -1028694.615    6966658.481
10 0 59743   7200.00000  0   -1851013.054   -1027646.668    6736581.313
10 0 59743   7380.00000  0   -3125918.756    -955006.290    6260672.236
10 0 59743   7560.00000  0   -4284758.484    -815810.364    5556219.395
10 0 59743   7740.00000  0   -5283809.630    -618707.152    4648822.697
10 0 59743   7920.00000  0   -6085346.032    -375518.017    3571507.231
10 0 59743   8100.00000  0   -6659107.077    -100640.449    2363557.118
10 0 59743   8280.00000  0   -6983499.347     189683.485    1069104.619
10 0 59743   8460.00000  0   -7046469.324     478199.199    -264489.917
10 0 59743   8640.00000  0   -6845990.009     747530.550   -1588403.272
10 0 59743   8820.00000  0   -6390131.376     981084.296   -2854177.954
10 0 59743   9000.00000  0   -5696718.319    1163920.621   -4015534.633
10 0 59743   9180.00000  0   -4792583.480    1283544.667   -5030091.600
10 0 59743   9360.00000  0   -3712463.968    1330576.576   -5860906.482
10 0 59743   9540.00000  0   -2497609.861    1299269.317   -6477789.415
10 0 59743   9720.00000  0   -1194172.666    1187852.730   -6858353.449
10 0 59743   9900.00000  0     148560.380     998694.534   -6988776.866
10 0 59743  10080.00000  0    1480014.281     738271.796   -6864269.835
10 0 59743  10260.00000  0    2750208.605     416954.122   -6489250.658
99
